[{"OBJECT_NAME":"STARLINK-34437","OBJECT_ID":"2025-126C","EPOCH":"2026-03-09T23:34:18.023520","MEAN_MOTION":14.98330455,"ECCENTRICITY":0.00030023,"INCLINATION":70.0035,"RA_OF_ASC_NODE":33.8073,"ARG_OF_PERICENTER":264.1696,"MEAN_ANOMALY":95.9121,"EPHEMERIS_TYPE":0,"CLASSIFICATION_TYPE":"U","NORAD_CAT_ID":64346,"ELEMENT_SET_NO":999,"REV_AT_EPOCH":4072,"BSTAR":-0.00016943203,"MEAN_MOTION_DOT":-2.114e-5,"MEAN_MOTION_DDOT":0},{"OBJECT_NAME":"GSLV R\/B","OBJECT_ID":"2022-138AN","EPOCH":"2026-03-09T17:17:59.229888","MEAN_MOTION":14.96774296,"ECCENTRICITY":0.00230204,"INCLINATION":87.3876,"RA_OF_ASC_NODE":166.352,"ARG_OF_PERICENTER":146.6269,"MEAN_ANOMALY":213.6419,"EPHEMERIS_TYPE":0,"CLASSIFICATION_TYPE":"U","NORAD_CAT_ID":54149,"ELEMENT_SET_NO":999,"REV_AT_EPOCH":18393,"BSTAR":0.00032104808,"MEAN_MOTION_DOT":3.719e-5,"MEAN_MOTION_DDOT":0}]
